start=new Date('2023-05-03T00:00:00.000Z').valueOf();
sats=[{"TLE_LINE1":"1 48308U 21036AJ  23122.32454700  .00003469  00000-0  25167-3 0  9996","ELEMENT_SET_NO":"999","REV_AT_EPOCH":"11106","INCLINATION":"53.0532","FILE":"3899068","TIME_SYSTEM":"UTC","CENTER_NAME":"EARTH","SEMIMAJOR_AXIS":"6925.355","ECCENTRICITY":"0.00013850","OBJECT_TYPE":"PAYLOAD","PERIAPSIS":"546.261","APOAPSIS":"548.179","EPOCH":"2023-05-02T07:47:20.860800","PERIOD":"95.592","DECAY_DATE":null,"LAUNCH_DATE":"2021-04-29","RA_OF_ASC_NODE":"90.9737","MEAN_ANOMALY":"249.8128","COUNTRY_CODE":"US","NORAD_CAT_ID":"48308","CLASSIFICATION_TYPE":"U","BSTAR":"0.00025167000000","MEAN_ELEMENT_THEORY":"SGP4","REF_FRAME":"TEME","SITE":"AFETR","TLE_LINE2":"2 48308  53.0532  90.9737 0001385 110.3010 249.8128 15.06398006111062","EPHEMERIS_TYPE":"0","ARG_OF_PERICENTER":"110.3010","GP_ID":"231092220","MEAN_MOTION_DOT":"0.00003469","RCS_SIZE":"LARGE","MEAN_MOTION_DDOT":"0.0000000000000","OBJECT_NAME":"STARLINK-2532","OBJECT_ID":"2021-036AJ","MEAN_MOTION":"15.06398006"},{"MEAN_ELEMENT_THEORY":"SGP4","BSTAR":"0.00014257000000","REF_FRAME":"TEME","CLASSIFICATION_TYPE":"U","NORAD_CAT_ID":"48309","COUNTRY_CODE":"US","PERIOD":"95.592","DECAY_DATE":null,"LAUNCH_DATE":"2021-04-29","RA_OF_ASC_NODE":"90.9898","MEAN_ANOMALY":"275.1040","ARG_OF_PERICENTER":"85.0115","GP_ID":"231092470","TLE_LINE2":"2 48309  53.0526  90.9898 0001453  85.0115 275.1040 15.06397339111067","EPHEMERIS_TYPE":"0","SITE":"AFETR","RCS_SIZE":"MEDIUM","MEAN_MOTION_DOT":"0.00001843","OBJECT_ID":"2021-036AK","MEAN_MOTION":"15.06397339","OBJECT_NAME":"STARLINK-2517","MEAN_MOTION_DDOT":"0.0000000000000","FILE":"3899068","ELEMENT_SET_NO":"999","INCLINATION":"53.0526","REV_AT_EPOCH":"11106","TLE_LINE1":"1 48309U 21036AK  23122.32086635  .00001843  00000-0  14257-3 0  9997","CENTER_NAME":"EARTH","SEMIMAJOR_AXIS":"6925.357","TIME_SYSTEM":"UTC","OBJECT_TYPE":"PAYLOAD","ECCENTRICITY":"0.00014530","EPOCH":"2023-05-02T07:42:02.852640","APOAPSIS":"548.228","PERIAPSIS":"546.215"},{"MEAN_MOTION_DOT":"0.00010805","RCS_SIZE":"LARGE","OBJECT_ID":"2021-036AL","MEAN_MOTION":"15.06406034","MEAN_MOTION_DDOT":"0.0000000000000","OBJECT_NAME":"STARLINK-2536","CLASSIFICATION_TYPE":"U","NORAD_CAT_ID":"48310","BSTAR":"0.00074302000000","MEAN_ELEMENT_THEORY":"SGP4","REF_FRAME":"TEME","DECAY_DATE":null,"LAUNCH_DATE":"2021-04-29","RA_OF_ASC_NODE":"88.3243","PERIOD":"95.592","MEAN_ANOMALY":"267.8862","COUNTRY_CODE":"US","GP_ID":"231122669","ARG_OF_PERICENTER":"92.2280","TLE_LINE2":"2 48310  53.0541  88.3243 0001337  92.2280 267.8862 15.06406034111158","EPHEMERIS_TYPE":"0","SITE":"AFETR","ECCENTRICITY":"0.00013370","OBJECT_TYPE":"PAYLOAD","APOAPSIS":"548.121","EPOCH":"2023-05-02T21:56:35.583936","PERIAPSIS":"546.269","ELEMENT_SET_NO":"999","REV_AT_EPOCH":"11115","INCLINATION":"53.0541","FILE":"3899277","TLE_LINE1":"1 48310U 21036AL  23122.91430074  .00010805  00000-0  74302-3 0  9999","TIME_SYSTEM":"UTC","CENTER_NAME":"EARTH","SEMIMAJOR_AXIS":"6925.330"},{"MEAN_MOTION":"15.06410619","OBJECT_ID":"2021-036AM","OBJECT_NAME":"STARLINK-2534","MEAN_MOTION_DDOT":"0.0000000000000","RCS_SIZE":"LARGE","MEAN_MOTION_DOT":"0.00001763","GP_ID":"231123413","ARG_OF_PERICENTER":"119.3441","TLE_LINE2":"2 48311  53.0562  88.3384 0001353 119.3441 240.7683 15.06410619111151","SITE":"AFETR","EPHEMERIS_TYPE":"0","REF_FRAME":"TEME","BSTAR":"0.00013721000000","MEAN_ELEMENT_THEORY":"SGP4","NORAD_CAT_ID":"48311","CLASSIFICATION_TYPE":"U","COUNTRY_CODE":"US","MEAN_ANOMALY":"240.7683","DECAY_DATE":null,"RA_OF_ASC_NODE":"88.3384","LAUNCH_DATE":"2021-04-29","PERIOD":"95.591","EPOCH":"2023-05-02T21:51:16.529472","APOAPSIS":"548.118","PERIAPSIS":"546.244","OBJECT_TYPE":"PAYLOAD","ECCENTRICITY":"0.00013530","SEMIMAJOR_AXIS":"6925.316","CENTER_NAME":"EARTH","TIME_SYSTEM":"UTC","FILE":"3899277","INCLINATION":"53.0562","REV_AT_EPOCH":"11115","ELEMENT_SET_NO":"999","TLE_LINE1":"1 48311U 21036AM  23122.91060798  .00001763  00000-0  13721-3 0  9993"},{"MEAN_MOTION_DOT":"0.00008781","RCS_SIZE":"LARGE","MEAN_MOTION":"15.06404266","OBJECT_ID":"2021-036AN","OBJECT_NAME":"STARLINK-2061","MEAN_MOTION_DDOT":"0.0000000000000","REF_FRAME":"TEME","MEAN_ELEMENT_THEORY":"SGP4","BSTAR":"0.00060758000000","CLASSIFICATION_TYPE":"U","NORAD_CAT_ID":"48312","COUNTRY_CODE":"US","MEAN_ANOMALY":"270.4960","DECAY_DATE":null,"LAUNCH_DATE":"2021-04-29","PERIOD":"95.592","RA_OF_ASC_NODE":"88.3593","ARG_OF_PERICENTER":"89.6173","GP_ID":"231121668","TLE_LINE2":"2 48312  53.0538  88.3593 0001259  89.6173 270.4960 15.06404266111152","EPHEMERIS_TYPE":"0","SITE":"AFETR","OBJECT_TYPE":"PAYLOAD","ECCENTRICITY":"0.00012590","EPOCH":"2023-05-02T21:45:58.542048","APOAPSIS":"548.072","PERIAPSIS":"546.329","FILE":"3899277","REV_AT_EPOCH":"11115","INCLINATION":"53.0538","ELEMENT_SET_NO":"999","TLE_LINE1":"1 48312U 21036AN  23122.90692757  .00008781  00000-0  60758-3 0  9998","SEMIMAJOR_AXIS":"6925.335","CENTER_NAME":"EARTH","TIME_SYSTEM":"UTC"},{"NORAD_CAT_ID":"48313","CLASSIFICATION_TYPE":"U","REF_FRAME":"TEME","MEAN_ELEMENT_THEORY":"SGP4","BSTAR":"0.00044457000000","MEAN_ANOMALY":"266.2018","DECAY_DATE":null,"RA_OF_ASC_NODE":"88.3720","LAUNCH_DATE":"2021-04-29","PERIOD":"95.592","COUNTRY_CODE":"US","ARG_OF_PERICENTER":"93.9118","GP_ID":"231121918","SITE":"AFETR","TLE_LINE2":"2 48313  53.0539  88.3720 0001287  93.9118 266.2018 15.06405665111144","EPHEMERIS_TYPE":"0","MEAN_MOTION_DOT":"0.00006348","RCS_SIZE":"LARGE","MEAN_MOTION":"15.06405665","OBJECT_ID":"2021-036AP","MEAN_MOTION_DDOT":"0.0000000000000","OBJECT_NAME":"STARLINK-2541","REV_AT_EPOCH":"11114","INCLINATION":"53.0539","ELEMENT_SET_NO":"999","FILE":"3899277","TLE_LINE1":"1 48313U 21036AP  23122.90324709  .00006348  00000-0  44457-3 0  9993","TIME_SYSTEM":"UTC","SEMIMAJOR_AXIS":"6925.331","CENTER_NAME":"EARTH","ECCENTRICITY":"0.00012870","OBJECT_TYPE":"PAYLOAD","APOAPSIS":"548.087","EPOCH":"2023-05-02T21:40:40.548576","PERIAPSIS":"546.305"},{"NORAD_CAT_ID":"48314","CLASSIFICATION_TYPE":"U","REF_FRAME":"TEME","MEAN_ELEMENT_THEORY":"SGP4","BSTAR":"0.00058639000000","MEAN_ANOMALY":"265.9609","RA_OF_ASC_NODE":"88.3929","DECAY_DATE":null,"LAUNCH_DATE":"2021-04-29","PERIOD":"95.592","COUNTRY_CODE":"US","ARG_OF_PERICENTER":"94.1514","GP_ID":"231123170","EPHEMERIS_TYPE":"0","TLE_LINE2":"2 48314  53.0528  88.3929 0001177  94.1514 265.9609 15.06402796111149","SITE":"AFETR","MEAN_MOTION_DOT":"0.00008464","RCS_SIZE":"LARGE","MEAN_MOTION":"15.06402796","OBJECT_ID":"2021-036AQ","MEAN_MOTION_DDOT":"0.0000000000000","OBJECT_NAME":"STARLINK-2549","REV_AT_EPOCH":"11114","INCLINATION":"53.0528","ELEMENT_SET_NO":"999","FILE":"3899277","TLE_LINE1":"1 48314U 21036AQ  23122.89955295  .00008464  00000-0  58639-3 0  9990","TIME_SYSTEM":"UTC","SEMIMAJOR_AXIS":"6925.340","CENTER_NAME":"EARTH","ECCENTRICITY":"0.00011770","OBJECT_TYPE":"PAYLOAD","APOAPSIS":"548.020","EPOCH":"2023-05-02T21:35:21.374880","PERIAPSIS":"546.390"},{"ECCENTRICITY":"0.00012440","OBJECT_TYPE":"PAYLOAD","APOAPSIS":"548.080","EPOCH":"2023-05-02T15:06:31.990752","PERIAPSIS":"546.356","REV_AT_EPOCH":"11110","INCLINATION":"53.0538","ELEMENT_SET_NO":"999","FILE":"3899277","TLE_LINE1":"1 48315U 21036AR  23122.62953693  .00011488  00000-0  78891-3 0  9994","TIME_SYSTEM":"UTC","SEMIMAJOR_AXIS":"6925.353","CENTER_NAME":"EARTH","MEAN_MOTION_DOT":"0.00011488","RCS_SIZE":"LARGE","MEAN_MOTION":"15.06398549","OBJECT_ID":"2021-036AR","MEAN_MOTION_DDOT":"0.0000000000000","OBJECT_NAME":"STARLINK-2506","CLASSIFICATION_TYPE":"U","NORAD_CAT_ID":"48315","REF_FRAME":"TEME","BSTAR":"0.00078891000000","MEAN_ELEMENT_THEORY":"SGP4","MEAN_ANOMALY":"268.4288","DECAY_DATE":null,"LAUNCH_DATE":"2021-04-29","PERIOD":"95.592","RA_OF_ASC_NODE":"89.5990","COUNTRY_CODE":"US","ARG_OF_PERICENTER":"91.6843","GP_ID":"231122913","EPHEMERIS_TYPE":"0","TLE_LINE2":"2 48315  53.0538  89.5990 0001244  91.6843 268.4288 15.06398549111101","SITE":"AFETR"},{"REV_AT_EPOCH":"11114","INCLINATION":"53.0544","ELEMENT_SET_NO":"999","FILE":"3899277","TLE_LINE1":"1 48316U 21036AS  23122.89218436  .00001114  00000-0  93667-4 0  9997","TIME_SYSTEM":"UTC","SEMIMAJOR_AXIS":"6925.355","CENTER_NAME":"EARTH","ECCENTRICITY":"0.00015120","OBJECT_TYPE":"PAYLOAD","APOAPSIS":"548.267","EPOCH":"2023-05-02T21:24:44.728704","PERIAPSIS":"546.173","NORAD_CAT_ID":"48316","CLASSIFICATION_TYPE":"U","REF_FRAME":"TEME","MEAN_ELEMENT_THEORY":"SGP4","BSTAR":"0.00009366700000","MEAN_ANOMALY":"257.7806","LAUNCH_DATE":"2021-04-29","DECAY_DATE":null,"RA_OF_ASC_NODE":"88.4259","PERIOD":"95.592","COUNTRY_CODE":"US","ARG_OF_PERICENTER":"102.3353","GP_ID":"231122169","SITE":"AFETR","TLE_LINE2":"2 48316  53.0544  88.4259 0001512 102.3353 257.7806 15.06397847111140","EPHEMERIS_TYPE":"0","RCS_SIZE":"LARGE","MEAN_MOTION_DOT":"0.00001114","MEAN_MOTION":"15.06397847","OBJECT_ID":"2021-036AS","MEAN_MOTION_DDOT":"0.0000000000000","OBJECT_NAME":"STARLINK-2507"},{"ARG_OF_PERICENTER":"100.8491","GP_ID":"231122419","TLE_LINE2":"2 48317  53.0541  88.4467 0001299 100.8491 259.2644 15.06403054111142","EPHEMERIS_TYPE":"0","SITE":"AFETR","NORAD_CAT_ID":"48317","CLASSIFICATION_TYPE":"U","REF_FRAME":"TEME","BSTAR":"0.00062054000000","MEAN_ELEMENT_THEORY":"SGP4","MEAN_ANOMALY":"259.2644","DECAY_DATE":null,"PERIOD":"95.592","LAUNCH_DATE":"2021-04-29","RA_OF_ASC_NODE":"88.4467","COUNTRY_CODE":"US","MEAN_MOTION":"15.06403054","OBJECT_ID":"2021-036AT","MEAN_MOTION_DDOT":"0.0000000000000","OBJECT_NAME":"STARLINK-2513","RCS_SIZE":"LARGE","MEAN_MOTION_DOT":"0.00008974","TIME_SYSTEM":"UTC","SEMIMAJOR_AXIS":"6925.339","CENTER_NAME":"EARTH","REV_AT_EPOCH":"11114","INCLINATION":"53.0541","ELEMENT_SET_NO":"999","FILE":"3899277","TLE_LINE1":"1 48317U 21036AT  23122.88849752  .00008974  00000-0  62054-3 0  9994","APOAPSIS":"548.104","EPOCH":"2023-05-02T21:19:26.185728","PERIAPSIS":"546.305","ECCENTRICITY":"0.00012990","OBJECT_TYPE":"PAYLOAD"}];
